NORAD_CAT_ID,OBJECT_NAME,OBJECT_TYPE,EPOCH,MEAN_MOTION,ECCENTRICITY,INCLINATION,RA_OF_ASC_NODE,ARG_OF_PERICENTER,MEAN_ANOMALY,BSTAR,MEAN_MOTION_DOT,MEAN_MOTION_DDOT,TLE_LINE0,TLE_LINE1,TLE_LINE2,SEMIMAJOR_AXIS,PERIOD,APOGEE,PERIGEE,DECAYED
52372.0,STARLINK-3796,PAYLOAD,2024-04-04 10:17:53,15.08841907,0.0001519,53.2169,110.6707,82.9666,277.1499,9.1253e-05,1.165e-05,0.0,0 STARLINK-3796,1 52372U 22045AT  24095.42908914  .00001165  00000-0  91253-4 0  9996,2 52372  53.2169 110.6707 0001519  82.9666 277.1499 15.08841907109598,6917.875,95.437,540.79,538.689,0.0
52372.0,STARLINK-3796,PAYLOAD,2024-04-04 18:14:49,15.08819088,0.000169,53.2168,109.1835,90.6528,269.4658,0.0004934,7.569e-05,0.0,0 STARLINK-3796,1 52372U 22045AT  24095.76029688  .00007569  00000-0  49340-3 0  9998,2 52372  53.2168 109.1835 0001690  90.6528 269.4658 15.08819088109647,6917.944,95.439,540.978,538.64,0.0
52372.0,STARLINK-3796,PAYLOAD,2024-04-05 00:36:21,15.08842937,0.0001488,53.2163,107.9939,81.498,278.6181,0.00012364,1.68e-05,0.0,0 STARLINK-3796,1 52372U 22045AT  24096.02524485  .00001680  00000-0  12364-3 0  9997,2 52372  53.2163 107.9939 0001488  81.4980 278.6181 15.08842937109684,6917.871,95.437,540.766,538.707,0.0
52372.0,STARLINK-3796,PAYLOAD,2024-04-05 10:08:39,15.0884453,0.0001471,53.2163,106.2095,83.0266,277.0893,8.4633e-05,1.059e-05,0.0,0 STARLINK-3796,1 52372U 22045AT  24096.42268462  .00001059  00000-0  84633-4 0  9990,2 52372  53.2163 106.2095 0001471  83.0266 277.0893 15.08844530109747,6917.867,95.437,540.749,538.714,0.0
52372.0,STARLINK-3796,PAYLOAD,2024-04-05 18:05:35,15.08846955,0.0001477,53.2164,104.7227,82.8932,277.2228,8.7103e-05,1.099e-05,0.0,0 STARLINK-3796,1 52372U 22045AT  24096.75388164  .00001099  00000-0  87103-4 0  9997,2 52372  53.2164 104.7227 0001477  82.8932 277.2228 15.08846955109793,6917.859,95.437,540.746,538.702,0.0
52372.0,STARLINK-3796,PAYLOAD,2024-04-06 03:37:54,15.08838174,0.0001517,53.2169,102.9388,84.392,275.7245,5.653e-05,6.12e-06,0.0,0 STARLINK-3796,1 52372U 22045AT  24097.15132782  .00000612  00000-0  56530-4 0  9995,2 52372  53.2169 102.9388 0001517  84.3920 275.7245 15.08838174109858,6917.886,95.438,540.8,538.702,0.0
52372.0,STARLINK-3796,PAYLOAD,2024-04-06 09:59:27,15.08839816,0.000157,53.2174,101.7468,95.7829,264.3342,4.0992e-05,3.64e-06,0.0,0 STARLINK-3796,1 52372U 22045AT  24097.41628624  .00000364  00000-0  40992-4 0  9998,2 52372  53.2174 101.7468 0001570  95.7829 264.3342 15.08839816109893,6917.881,95.438,540.832,538.66,0.0
52372.0,STARLINK-3796,PAYLOAD,2024-04-07 06:39:28,15.08835711,0.0001553,53.2178,97.881,97.0372,263.0797,-1.6791e-05,-5.55e-06,0.0,0 STARLINK-3796,1 52372U 22045AT  24098.27741075 -.00000555  00000-0 -16791-4 0  9993,2 52372  53.2178  97.8810 0001553  97.0372 263.0797 15.08835711110029,6917.893,95.438,540.833,538.684,0.0
52372.0,STARLINK-3796,PAYLOAD,2024-04-08 09:41:01,15.08837725,0.0001382,53.2169,92.825,94.7605,265.3545,5.9722e-05,6.63e-06,0.0,0 STARLINK-3796,1 52372U 22045AT  24099.40348925  .00000663  00000-0  59722-4 0  9995,2 52372  53.2169  92.8250 0001382  94.7605 265.3545 15.08837725110196,6917.887,95.438,540.708,538.796,0.0
52372.0,STARLINK-3796,PAYLOAD,2024-04-08 23:59:29,15.08833865,0.0001485,53.2181,90.1522,97.5708,262.5453,8.2822e-05,1.03e-05,0.0,0 STARLINK-3796,1 52372U 22045AT  24099.99965227  .00001030  00000-0  82822-4 0  9995,2 52372  53.2181  90.1522 0001485  97.5708 262.5453 15.08833865110280,6917.899,95.438,540.791,538.737,0.0
52372.0,STARLINK-3796,PAYLOAD,2024-04-09 06:21:02,15.08833815,0.0001446,53.2181,88.9629,97.3867,262.729,7.6265e-05,9.26e-06,0.0,0 STARLINK-3796,1 52372U 22045AT  24100.26461363  .00000926  00000-0  76265-4 0  9997,2 52372  53.2181  88.9629 0001446  97.3867 262.7290 15.08833815110325,6917.899,95.438,540.765,538.764,0.0
52372.0,STARLINK-3796,PAYLOAD,2024-04-09 15:53:21,15.08840525,0.0001441,53.2182,87.1789,97.6789,262.4367,0.00010046,1.311e-05,0.0,0 STARLINK-3796,1 52372U 22045AT  24100.66204980  .00001311  00000-0  10046-3 0  9994,2 52372  53.2182  87.1789 0001441  97.6789 262.4367 15.08840525110389,6917.879,95.438,540.741,538.747,0.0
52372.0,STARLINK-3796,PAYLOAD,2024-04-10 07:47:12,15.08846028,0.0001487,53.2184,84.206,103.0991,257.0167,-4.9302e-05,-1.073e-05,0.0,0 STARLINK-3796,1 52372U 22045AT  24101.32445058 -.00001073  00000-0 -49302-4 0  9996,2 52372  53.2184  84.2060 0001487 103.0991 257.0167 15.08846028110481,6917.862,95.437,540.756,538.698,0.0
52372.0,STARLINK-3796,PAYLOAD,2024-04-10 22:05:40,15.08847072,0.0001493,53.2175,81.5276,86.7283,273.388,9.04e-05,1.151e-05,0.0,0 STARLINK-3796,1 52372U 22045AT  24101.92060533  .00001151  00000-0  90400-4 0  9993,2 52372  53.2175  81.5276 0001493  86.7283 273.3880 15.08847072110571,6917.859,95.437,540.757,538.691,0.0
52372.0,STARLINK-3796,PAYLOAD,2024-04-11 04:27:14,15.08831933,0.0001537,53.2189,80.3393,88.3138,271.803,1.5142e-06,-2.64e-06,0.0,0 STARLINK-3796,1 52372U 22045AT  24102.18557949 -.00000264  00000-0  15142-5 0  9990,2 52372  53.2189  80.3393 0001537  88.3138 271.8030 15.08831933110613,6917.905,95.438,540.833,538.707,0.0
52372.0,STARLINK-3796,PAYLOAD,2024-04-11 07:38:00,15.08832748,0.0001483,53.2188,79.7442,87.1061,273.0101,3.0097e-05,1.91e-06,0.0,0 STARLINK-3796,1 52372U 22045AT  24102.31805827  .00000191  00000-0  30097-4 0  9999,2 52372  53.2188  79.7442 0001483  87.1061 273.0101 15.08832748110631,6917.903,95.438,540.793,538.742,0.0
52372.0,STARLINK-3796,PAYLOAD,2024-04-11 15:34:55,15.08838753,0.0001534,53.2193,78.2578,86.5287,273.5881,7.4396e-05,8.96e-06,0.0,0 STARLINK-3796,1 52372U 22045AT  24102.64925397  .00000896  00000-0  74396-4 0  9992,2 52372  53.2193  78.2578 0001534  86.5287 273.5881 15.08838753110688,6917.884,95.438,540.81,538.688,0.0
52372.0,STARLINK-3796,PAYLOAD,2024-04-12 07:28:46,15.08840072,0.0001313,53.2178,75.2829,89.7568,270.3574,3.4947e-05,2.68e-06,0.0,0 STARLINK-3796,1 52372U 22045AT  24103.31165497  .00000268  00000-0  34947-4 0  9995,2 52372  53.2178  75.2829 0001313  89.7568 270.3574 15.08840072110781,6917.88,95.438,540.653,538.837,0.0
52372.0,STARLINK-3796,PAYLOAD,2024-04-13 04:08:47,15.08839428,0.0001383,53.2179,71.4151,94.1268,265.9883,8.0112e-05,9.87e-06,0.0,0 STARLINK-3796,1 52372U 22045AT  24104.17277494  .00000987  00000-0  80112-4 0  9994,2 52372  53.2179  71.4151 0001383  94.1268 265.9883 15.08839428110913,6917.882,95.438,540.704,538.79,0.0
52372.0,STARLINK-3796,PAYLOAD,2024-04-14 03:59:39,15.08769507,0.0001012,53.2181,66.9539,104.0583,256.0521,-0.00055494,-9.091e-05,0.0,0 STARLINK-3796,1 52372U 22045AT  24105.16643155 -.00009091  00000-0 -55494-3 0  9996,2 52372  53.2181  66.9539 0001012 104.0583 256.0521 15.08769507111062,6918.096,95.442,540.661,539.261,0.0
52372.0,STARLINK-3796,PAYLOAD,2024-04-14 07:10:26,15.0876943,9.67e-05,53.2182,66.3602,103.3396,256.7704,-0.00053986,-8.852e-05,0.0,0 STARLINK-3796,1 52372U 22045AT  24105.29891588 -.00008852  00000-0 -53986-3 0  9993,2 52372  53.2182  66.3602 0000967 103.3396 256.7704 15.08769430111087,6918.096,95.442,540.63,539.292,0.0
52372.0,STARLINK-3796,PAYLOAD,2024-04-15 03:50:21,15.08858106,0.0001009,53.2183,62.4921,117.4372,242.6723,0.00013982,1.939e-05,0.0,0 STARLINK-3796,1 52372U 22045AT  24106.15997222  .00001939  00000-0  13982-3 0  9990,2 52372  53.2183  62.4921 0001009 117.4372 242.6723 15.08858106111216,6917.825,95.436,540.388,538.992,0.0
52372.0,STARLINK-3796,PAYLOAD,2024-04-15 05:25:45,15.08853965,9.79e-05,53.2174,62.1951,114.6984,245.4111,0.00028134,4.194e-05,0.0,0 STARLINK-3796,1 52372U 22045AT  24106.22621902  .00004194  00000-0  28134-3 0  9998,2 52372  53.2174  62.1951 0000979 114.6984 245.4111 15.08853965111220,6917.838,95.437,540.38,539.025,0.0
52372.0,STARLINK-3796,PAYLOAD,2024-04-15 07:01:08,15.08854641,9.43e-05,53.2175,61.8995,110.8498,249.2596,0.00029483,4.409e-05,0.0,0 STARLINK-3796,1 52372U 22045AT  24106.29245886  .00004409  00000-0  29483-3 0  9995,2 52372  53.2175  61.8995 0000943 110.8498 249.2596 15.08854641111236,6917.836,95.437,540.353,539.048,0.0
52372.0,STARLINK-3796,PAYLOAD,2024-04-15 21:19:37,15.08839829,0.0001053,53.2185,59.2284,46.8477,313.2604,0.00052142,8.02e-05,0.0,0 STARLINK-3796,1 52372U 22045AT  24106.88862408  .00008020  00000-0  52142-3 0  9996,2 52372  53.2185  59.2284 0001053  46.8477 313.2604 15.08839829111320,6917.881,95.438,540.474,539.017,0.0
52372.0,STARLINK-3796,PAYLOAD,2024-04-16 13:13:28,15.08852086,8.55e-05,53.2187,56.2507,114.0818,246.0264,0.00092327,0.00014441,0.0,0 STARLINK-3796,1 52372U 22045AT  24107.55101858  .00014441  00000-0  92327-3 0  9999,2 52372  53.2187  56.2507 0000855 114.0818 246.0264 15.08852086111429,6917.843,95.437,540.3,539.117,0.0
52372.0,STARLINK-3796,PAYLOAD,2024-04-17 05:07:18,15.08861685,8.04e-05,53.2175,53.2768,106.0238,254.0842,6.1883e-05,6.98e-06,0.0,0 STARLINK-3796,1 52372U 22045AT  24108.21340666  .00000698  00000-0  61883-4 0  9998,2 52372  53.2175  53.2768 0000804 106.0238 254.0842 15.08861685111520,6917.814,95.436,540.235,539.123,0.0
52372.0,STARLINK-3796,PAYLOAD,2024-04-18 03:22:43,15.08829172,9.85e-05,53.2171,49.116,102.4954,257.6148,-0.00019603,-3.405e-05,0.0,0 STARLINK-3796,1 52372U 22045AT  24109.14078244 -.00003405  00000-0 -19603-3 0  9994,2 52372  53.2171  49.1160 0000985 102.4954 257.6148 15.08829172111669,6917.913,95.438,540.46,539.097,0.0
52372.0,STARLINK-3796,PAYLOAD,2024-04-18 06:33:30,15.08828494,0.0001024,53.2172,48.5216,102.2334,257.8773,-0.00016808,-2.961e-05,0.0,0 STARLINK-3796,1 52372U 22045AT  24109.27326396 -.00002961  00000-0 -16808-3 0  9992,2 52372  53.2172  48.5216 0001024 102.2334 257.8773 15.08828494111684,6917.916,95.438,540.489,539.072,0.0
52372.0,STARLINK-3796,PAYLOAD,2024-04-19 04:48:54,15.08845878,9.81e-05,53.2175,44.3588,99.9694,260.1409,0.00025879,3.834e-05,0.0,0 STARLINK-3796,1 52372U 22045AT  24110.20063051  .00003834  00000-0  25879-3 0  9999,2 52372  53.2175  44.3588 0000981  99.9694 260.1409 15.08845878111829,6917.862,95.437,540.406,539.049,0.0
